{"type": "FeatureCollection", "features": [{"type": "Feature", "properties": {"norad_id": 25590, "name": "COSMOS 2361", "group": "musson", "lat": -73.10242438378184, "lon": 178.65770766001734, "alt_km": 975.3060559975975, "timestamp": "2025-12-25T14:48:25.046688+00:00", "meta": {"OBJECT_NAME": "COSMOS 2361", "OBJECT_ID": "1998-076A", "EPOCH": "2025-12-25T01:40:40.592928", "MEAN_MOTION": 13.73218824, "ECCENTRICITY": 0.00303178, "INCLINATION": 82.9345, "RA_OF_ASC_NODE": 334.9664, "ARG_OF_PERICENTER": 229.9139, "MEAN_ANOMALY": 201.6823, "EPHEMERIS_TYPE": 0, "CLASSIFICATION_TYPE": "U", "NORAD_CAT_ID": 25590, "ELEMENT_SET_NO": 999, "REV_AT_EPOCH": 35280, "BSTAR": 4.9101775e-05, "MEAN_MOTION_DOT": 6e-07, "MEAN_MOTION_DDOT": 0}, "tle": {"line1": "1 25590U 98076A   25359.06991427  .00000060  00000+0  49102-4 0  9998", "line2": "2 25590  82.9345 334.9664 0030317 229.9139 201.6823 13.73218824352807"}}, "geometry": {"type": "Point", "coordinates": [178.65770766001734, -73.10242438378184]}}, {"type": "Feature", "properties": {"norad_id": 26818, "name": "COSMOS 2378", "group": "musson", "lat": 9.531312316859053, "lon": -8.629569178119281, "alt_km": 1009.1312439904605, "timestamp": "2025-12-25T14:48:25.046706+00:00", "meta": {"OBJECT_NAME": "COSMOS 2378", "OBJECT_ID": "2001-023A", "EPOCH": "2025-12-25T02:52:27.994944", "MEAN_MOTION": 13.7414296, "ECCENTRICITY": 0.00331845, "INCLINATION": 82.9272, "RA_OF_ASC_NODE": 350.5445, "ARG_OF_PERICENTER": 170.2004, "MEAN_ANOMALY": 261.4901, "EPHEMERIS_TYPE": 0, "CLASSIFICATION_TYPE": "U", "NORAD_CAT_ID": 26818, "ELEMENT_SET_NO": 999, "REV_AT_EPOCH": 23093, "BSTAR": 3.3956905e-05, "MEAN_MOTION_DOT": 4.7e-07, "MEAN_MOTION_DDOT": 0}, "tle": {"line1": "1 26818U 01023A   25359.11976846  .00000047  00000+0  33957-4 0  9998", "line2": "2 26818  82.9272 350.5445 0033184 170.2004 261.4901 13.74142960230933"}}, "geometry": {"type": "Point", "coordinates": [-8.629569178119281, 9.531312316859053]}}, {"type": "Feature", "properties": {"norad_id": 27436, "name": "COSMOS 2389", "group": "musson", "lat": -80.21494729789762, "lon": 163.29235566950294, "alt_km": 1006.9326405090042, "timestamp": "2025-12-25T14:48:25.046717+00:00", "meta": {"OBJECT_NAME": "COSMOS 2389", "OBJECT_ID": "2002-026A", "EPOCH": "2025-12-24T22:06:49.893984", "MEAN_MOTION": 13.75155957, "ECCENTRICITY": 0.0047094, "INCLINATION": 82.9513, "RA_OF_ASC_NODE": 297.9672, "ARG_OF_PERICENTER": 27.4918, "MEAN_ANOMALY": 34.7494, "EPHEMERIS_TYPE": 0, "CLASSIFICATION_TYPE": "U", "NORAD_CAT_ID": 27436, "ELEMENT_SET_NO": 999, "REV_AT_EPOCH": 18316, "BSTAR": 6.8126e-05, "MEAN_MOTION_DOT": 8.1e-07, "MEAN_MOTION_DDOT": 0}, "tle": {"line1": "1 27436U 02026A   25358.92141081  .00000081  00000+0  68126-4 0  9996", "line2": "2 27436  82.9513 297.9672 0047094  27.4918  34.7494 13.75155957183167"}}, "geometry": {"type": "Point", "coordinates": [163.29235566950294, -80.21494729789762]}}, {"type": "Feature", "properties": {"norad_id": 27818, "name": "COSMOS 2398", "group": "musson", "lat": 82.71602309072394, "lon": -21.239434935956695, "alt_km": 959.8735783405009, "timestamp": "2025-12-25T14:48:25.046727+00:00", "meta": {"OBJECT_NAME": "COSMOS 2398", "OBJECT_ID": "2003-023A", "EPOCH": "2025-12-25T06:11:43.168128", "MEAN_MOTION": 13.72387095, "ECCENTRICITY": 0.00326943, "INCLINATION": 82.9483, "RA_OF_ASC_NODE": 263.4738, "ARG_OF_PERICENTER": 78.461, "MEAN_ANOMALY": 37.8825, "EPHEMERIS_TYPE": 0, "CLASSIFICATION_TYPE": "U", "NORAD_CAT_ID": 27818, "ELEMENT_SET_NO": 999, "REV_AT_EPOCH": 12988, "BSTAR": 6.9939635e-05, "MEAN_MOTION_DOT": 8e-07, "MEAN_MOTION_DDOT": 0}, "tle": {"line1": "1 27818U 03023A   25359.25813852  .00000080  00000+0  69940-4 0  9991", "line2": "2 27818  82.9483 263.4738 0032694  78.4610  37.8825 13.72387095129881"}}, "geometry": {"type": "Point", "coordinates": [-21.239434935956695, 82.71602309072394]}}, {"type": "Feature", "properties": {"norad_id": 28380, "name": "COSMOS 2407", "group": "musson", "lat": 72.39137807797792, "lon": 0.4425606117746249, "alt_km": 968.1614640793869, "timestamp": "2025-12-25T14:48:25.046737+00:00", "meta": {"OBJECT_NAME": "COSMOS 2407", "OBJECT_ID": "2004-028A", "EPOCH": "2025-12-25T02:40:13.473120", "MEAN_MOTION": 13.76315024, "ECCENTRICITY": 0.00397398, "INCLINATION": 82.9593, "RA_OF_ASC_NODE": 203.7326, "ARG_OF_PERICENTER": 21.0232, "MEAN_ANOMALY": 100.5296, "EPHEMERIS_TYPE": 0, "CLASSIFICATION_TYPE": "U", "NORAD_CAT_ID": 28380, "ELEMENT_SET_NO": 999, "REV_AT_EPOCH": 7593, "BSTAR": 3.7652356e-05, "MEAN_MOTION_DOT": 5.2e-07, "MEAN_MOTION_DDOT": 0}, "tle": {"line1": "1 28380U 04028A   25359.11126705  .00000052  00000+0  37652-4 0  9995", "line2": "2 28380  82.9593 203.7326 0039739  21.0232 100.5296 13.76315024 75932"}}, "geometry": {"type": "Point", "coordinates": [0.4425606117746249, 72.39137807797792]}}, {"type": "Feature", "properties": {"norad_id": 28521, "name": "COSMOS 2414", "group": "musson", "lat": -6.242962532598855, "lon": -4.302053423005233, "alt_km": 935.4675874586083, "timestamp": "2025-12-25T14:48:25.046747+00:00", "meta": {"OBJECT_NAME": "COSMOS 2414", "OBJECT_ID": "2005-002A", "EPOCH": "2025-12-25T00:04:31.766016", "MEAN_MOTION": 13.87904522, "ECCENTRICITY": 0.00414146, "INCLINATION": 82.9488, "RA_OF_ASC_NODE": 175.3864, "ARG_OF_PERICENTER": 105.6791, "MEAN_ANOMALY": 254.8947, "EPHEMERIS_TYPE": 0, "CLASSIFICATION_TYPE": "U", "NORAD_CAT_ID": 28521, "ELEMENT_SET_NO": 999, "REV_AT_EPOCH": 5965, "BSTAR": 4.4725903e-05, "MEAN_MOTION_DOT": 7e-07, "MEAN_MOTION_DDOT": 0}, "tle": {"line1": "1 28521U 05002A   25359.00314544  .00000070  00000+0  44726-4 0  9993", "line2": "2 28521  82.9488 175.3864 0041414 105.6791 254.8947 13.87904522 59651"}}, "geometry": {"type": "Point", "coordinates": [-4.302053423005233, -6.242962532598855]}}, {"type": "Feature", "properties": {"norad_id": 32052, "name": "COSMOS 2429", "group": "musson", "lat": 82.96872426404609, "lon": 61.09708275057095, "alt_km": 972.2203170513776, "timestamp": "2025-12-25T14:48:25.046757+00:00", "meta": {"OBJECT_NAME": "COSMOS 2429", "OBJECT_ID": "2007-038A", "EPOCH": "2025-12-25T00:24:17.509248", "MEAN_MOTION": 13.75150565, "ECCENTRICITY": 0.00385111, "INCLINATION": 82.9808, "RA_OF_ASC_NODE": 334.2578, "ARG_OF_PERICENTER": 4.0546, "MEAN_ANOMALY": 356.0915, "EPHEMERIS_TYPE": 0, "CLASSIFICATION_TYPE": "U", "NORAD_CAT_ID": 32052, "ELEMENT_SET_NO": 999, "REV_AT_EPOCH": 91771, "BSTAR": 4.6345808e-05, "MEAN_MOTION_DOT": 6e-07, "MEAN_MOTION_DDOT": 0}, "tle": {"line1": "1 32052U 07038A   25359.01686932  .00000060  00000+0  46346-4 0  9991", "line2": "2 32052  82.9808 334.2578 0038511   4.0546 356.0915 13.75150565917710"}}, "geometry": {"type": "Point", "coordinates": [61.09708275057095, 82.96872426404609]}}, {"type": "Feature", "properties": {"norad_id": 35635, "name": "COSMOS 2454", "group": "musson", "lat": -30.383346557924092, "lon": 154.7260160150842, "alt_km": 929.6536823075057, "timestamp": "2025-12-25T14:48:25.046767+00:00", "meta": {"OBJECT_NAME": "COSMOS 2454", "OBJECT_ID": "2009-039A", "EPOCH": "2025-12-24T23:57:14.333184", "MEAN_MOTION": 13.89930197, "ECCENTRICITY": 0.00200053, "INCLINATION": 82.9558, "RA_OF_ASC_NODE": 159.3524, "ARG_OF_PERICENTER": 40.6876, "MEAN_ANOMALY": 74.0739, "EPHEMERIS_TYPE": 0, "CLASSIFICATION_TYPE": "U", "NORAD_CAT_ID": 35635, "ELEMENT_SET_NO": 999, "REV_AT_EPOCH": 83320, "BSTAR": 5.6949105e-05, "MEAN_MOTION_DOT": 8.6e-07, "MEAN_MOTION_DDOT": 0}, "tle": {"line1": "1 35635U 09039A   25358.99808256  .00000086  00000+0  56949-4 0  9993", "line2": "2 35635  82.9558 159.3524 0020005  40.6876  74.0739 13.89930197833204"}}, "geometry": {"type": "Point", "coordinates": [154.7260160150842, -30.383346557924092]}}, {"type": "Feature", "properties": {"norad_id": 36519, "name": "COSMOS 2463", "group": "musson", "lat": -62.76889889548745, "lon": -148.85794733442478, "alt_km": 975.399679617467, "timestamp": "2025-12-25T14:48:25.046776+00:00", "meta": {"OBJECT_NAME": "COSMOS 2463", "OBJECT_ID": "2010-017A", "EPOCH": "2025-12-24T23:55:31.767744", "MEAN_MOTION": 13.716502, "ECCENTRICITY": 0.00348043, "INCLINATION": 82.9603, "RA_OF_ASC_NODE": 17.7047, "ARG_OF_PERICENTER": 252.7721, "MEAN_ANOMALY": 170.7477, "EPHEMERIS_TYPE": 0, "CLASSIFICATION_TYPE": "U", "NORAD_CAT_ID": 36519, "ELEMENT_SET_NO": 999, "REV_AT_EPOCH": 78405, "BSTAR": 3.3999158e-05, "MEAN_MOTION_DOT": 4.6e-07, "MEAN_MOTION_DDOT": 0}, "tle": {"line1": "1 36519U 10017A   25358.99689546  .00000046  00000+0  33999-4 0  9998", "line2": "2 36519  82.9603  17.7047 0034804 252.7721 170.7477 13.71650200784057"}}, "geometry": {"type": "Point", "coordinates": [-148.85794733442478, -62.76889889548745]}}]}